QIANFAN-33              
1 61566U 24185Q   25293.16601338  .00000706  00000+0  50158-3 0  9997
2 61566  88.9752  84.7761 0008512 124.6934 235.5046 13.96480680 61684
QIANFAN-34              
1 61567U 24185R   25293.13693356  .00000850  00000+0  54628-3 0  9992
2 61567  88.9735  84.4140 0007410 126.4993 233.6870 14.02233748 61846
QIANFAN-35              
1 61568U 24185S   25293.15799177  .00001571  00000+0  62957-3 0  9998
2 61568  88.9759  83.1637 0008740 100.0433 260.1748 14.27830288 62539
QIANFAN-36              
1 61569U 24185T   25293.15306578  .00000214  00000+0  29064-3 0  9993
2 61569  88.9738  86.6229 0005859 181.4775 178.6363 13.55565785 60667
QIANFAN-37              
1 62238U 24232B   25293.14765083  .00000163  00000+0  23358-3 0  9992
2 62238  89.0024  46.7274 0001281 121.4511 238.6765 13.50972467 91936
QIANFAN-38              
1 62239U 24232C   25293.24635310  .00000187  00000+0  27044-3 0  9995
2 62239  89.0031  46.6296 0013895 356.7394   3.3664 13.50981020 92003
QIANFAN-39              
1 62240U 24232D   25293.20956714  .00001030  00000+0  43150-3 0  9991
2 62240  89.0028  43.4183 0014242 250.3994 109.5662 14.25299607 93760
QIANFAN-40              
1 62241U 24232E   25293.20517965  .00000173  00000+0  24935-3 0  9990
2 62241  89.0059  46.2033 0013169   5.6381 354.4916 13.50980519 92362
